{
    "links": {
        "self": "http://www.neowsapp.com/rest/v1/neo/3827434?api_key=iIulBulltgU6a56xZRHN4H3l9WmuAYTsLGpBGhQ2"
    },
    "id": "3827434",
    "neo_reference_id": "3827434",
    "name": "(2018 RE4)",
    "designation": "2018 RE4",
    "nasa_jpl_url": "http://ssd.jpl.nasa.gov/sbdb.cgi?sstr=3827434",
    "absolute_magnitude_h": 27.1,
    "estimated_diameter": {
        "kilometers": {
            "estimated_diameter_min": 0.0101054342,
            "estimated_diameter_max": 0.0225964377
        },
        "meters": {
            "estimated_diameter_min": 10.1054341542,
            "estimated_diameter_max": 22.5964377109
        },
        "miles": {
            "estimated_diameter_min": 0.0062792237,
            "estimated_diameter_max": 0.0140407711
        },
        "feet": {
            "estimated_diameter_min": 33.1543125905,
            "estimated_diameter_max": 74.1352966996
        }
    },
    "is_potentially_hazardous_asteroid": false,
    "close_approach_data": [
        {
            "close_approach_date": "2016-10-11",
            "close_approach_date_full": "2016-Oct-11 04:07",
            "epoch_date_close_approach": 1476158820000,
            "relative_velocity": {
                "kilometers_per_second": "13.780590948",
                "kilometers_per_hour": "49610.1274126337",
                "miles_per_hour": "30825.8038914779"
            },
            "miss_distance": {
                "astronomical": "0.2845871472",
                "lunar": "110.7044002608",
                "kilometers": "42573631.050496464",
                "miles": "26454027.6452166432"
            },
            "orbiting_body": "Earth"
        },
        {
            "close_approach_date": "2018-09-05",
            "close_approach_date_full": "2018-Sep-05 09:45",
            "epoch_date_close_approach": 1536140700000,
            "relative_velocity": {
                "kilometers_per_second": "6.3115812364",
                "kilometers_per_hour": "22721.6924511866",
                "miles_per_hour": "14118.3760677943"
            },
            "miss_distance": {
                "astronomical": "0.0175459972",
                "lunar": "6.8253929108",
                "kilometers": "2624843.808145964",
                "miles": "1631002.3117997432"
            },
            "orbiting_body": "Earth"
        },
        {
            "close_approach_date": "2020-07-12",
            "close_approach_date_full": "2020-Jul-12 12:15",
            "epoch_date_close_approach": 1594556100000,
            "relative_velocity": {
                "kilometers_per_second": "13.0933797662",
                "kilometers_per_hour": "47136.1671582152",
                "miles_per_hour": "29288.5811989477"
            },
            "miss_distance": {
                "astronomical": "0.2874501865",
                "lunar": "111.8181225485",
                "kilometers": "43001935.631502755",
                "miles": "26720163.770957819"
            },
            "orbiting_body": "Earth"
        }
    ],
    "orbital_data": {
        "orbit_id": "4",
        "orbit_determination_date": "2018-09-27 06:26:07",
        "first_observation_date": "2018-09-10",
        "last_observation_date": "2018-09-19",
        "data_arc_in_days": 9,
        "observations_used": 27,
        "orbit_uncertainty": "8",
        "minimum_orbit_intersection": ".0158793",
        "jupiter_tisserand_invariant": "4.354",
        "epoch_osculation": "2458374.5",
        "eccentricity": ".3465021865235078",
        "semi_major_axis": "1.560371355316411",
        "inclination": "7.396881476162565",
        "ascending_node_longitude": "347.1819543351113",
        "orbital_period": "711.935059623963",
        "perihelion_distance": "1.019699268910625",
        "perihelion_argument": "349.0257792194438",
        "aphelion_distance": "2.101043441722196",
        "perihelion_time": "2458360.925626198490",
        "mean_anomaly": "6.864073488844258",
        "mean_motion": ".505664098338054",
        "equinox": "J2000",
        "orbit_class": {
            "orbit_class_type": "AMO",
            "orbit_class_description": "Near-Earth asteroid orbits similar to that of 1221 Amor",
            "orbit_class_range": "1.017 AU < q (perihelion) < 1.3 AU"
        }
    },
    "is_sentry_object": false
}